{
  "type": "FeatureCollection",
  "features": [
    {
      "type": "Feature",
      "properties": {
        "norad_id": 66607,
        "name": "STARLINK-35993",
        "group": "last-30-days",
        "lat": -8.549871251917532,
        "lon": 50.13632190694275,
        "alt_km": 380.058880042473,
        "timestamp": "2025-12-07T22:37:41.857945+00:00",
        "meta_object_name": "STARLINK-35993",
        "meta_object_id": "2025-270V",
        "meta_epoch": "2025-12-07T06:00:04.999968",
        "meta_mean_motion": 15.65716295,
        "meta_eccentricity": 0.00015501,
        "meta_inclination": 42.9991,
        "meta_ra_of_asc_node": 224.9881,
        "meta_arg_of_pericenter": 257.8668,
        "meta_mean_anomaly": 348.7308,
        "meta_ephemeris_type": 0,
        "meta_classification_type": "U",
        "meta_norad_cat_id": 66607,
        "meta_element_set_no": 999,
        "meta_rev_at_epoch": 341,
        "meta_bstar": -0.021724953,
        "meta_mean_motion_dot": -0.0198889,
        "meta_mean_motion_ddot": 0,
        "tle_line1": "1 66607U 25270V   25341.25005787 -.01988890  00000+0 -21725-1 0  9992",
        "tle_line2": "2 66607  42.9991 224.9881 0001550 257.8668 348.7308 15.65716295  3416"
      },
      "geometry": {
        "type": "Point",
        "coordinates": [
          50.13632190694275,
          -8.549871251917532
        ]
      }
    },
    {
      "type": "Feature",
      "properties": {
        "norad_id": 66608,
        "name": "STARLINK-36036",
        "group": "last-30-days",
        "lat": -11.113031951393058,
        "lon": 53.010965625427275,
        "alt_km": 380.2862113669735,
        "timestamp": "2025-12-07T22:37:41.857956+00:00",
        "meta_object_name": "STARLINK-36036",
        "meta_object_id": "2025-270W",
        "meta_epoch": "2025-12-07T06:00:04.999968",
        "meta_mean_motion": 15.65718611,
        "meta_eccentricity": 0.00015952,
        "meta_inclination": 42.9992,
        "meta_ra_of_asc_node": 224.9782,
        "meta_arg_of_pericenter": 258.7892,
        "meta_mean_anomaly": 351.6441,
        "meta_ephemeris_type": 0,
        "meta_classification_type": "U",
        "meta_norad_cat_id": 66608,
        "meta_element_set_no": 999,
        "meta_rev_at_epoch": 335,
        "meta_bstar": -0.021802697,
        "meta_mean_motion_dot": -0.01995345,
        "meta_mean_motion_ddot": 0,
        "tle_line1": "1 66608U 25270W   25341.25005787 -.01995345  00000+0 -21803-1 0  9993",
        "tle_line2": "2 66608  42.9992 224.9782 0001595 258.7892 351.6441 15.65718611  3354"
      },
      "geometry": {
        "type": "Point",
        "coordinates": [
          53.010965625427275,
          -11.113031951393058
        ]
      }
    },
    {
      "type": "Feature",
      "properties": {
        "norad_id": 66609,
        "name": "STARLINK-36034",
        "group": "last-30-days",
        "lat": -12.392464157878718,
        "lon": 54.47595391411807,
        "alt_km": 380.3607741318947,
        "timestamp": "2025-12-07T22:37:41.857966+00:00",
        "meta_object_name": "STARLINK-36034",
        "meta_object_id": "2025-270X",
        "meta_epoch": "2025-12-07T06:00:04.999968",
        "meta_mean_motion": 15.65714895,
        "meta_eccentricity": 0.00015154,
        "meta_inclination": 42.9992,
        "meta_ra_of_asc_node": 224.9735,
        "meta_arg_of_pericenter": 258.3843,
        "meta_mean_anomaly": 353.966,
        "meta_ephemeris_type": 0,
        "meta_classification_type": "U",
        "meta_norad_cat_id": 66609,
        "meta_element_set_no": 999,
        "meta_rev_at_epoch": 335,
        "meta_bstar": -0.021704471,
        "meta_mean_motion_dot": -0.01987115,
        "meta_mean_motion_ddot": 0,
        "tle_line1": "1 66609U 25270X   25341.25005787 -.01987115  00000+0 -21704-1 0  9990",
        "tle_line2": "2 66609  42.9992 224.9735 0001515 258.3843 353.9660 15.65714895  3355"
      },
      "geometry": {
        "type": "Point",
        "coordinates": [
          54.47595391411807,
          -12.392464157878718
        ]
      }
    },
    {
      "type": "Feature",
      "properties": {
        "norad_id": 66610,
        "name": "STARLINK-35680",
        "group": "last-30-days",
        "lat": -13.656775970712848,
        "lon": 55.946512219256704,
        "alt_km": 380.43086512037917,
        "timestamp": "2025-12-07T22:37:41.857978+00:00",
        "meta_object_name": "STARLINK-35680",
        "meta_object_id": "2025-270Y",
        "meta_epoch": "2025-12-07T06:00:04.999968",
        "meta_mean_motion": 15.6571592,
        "meta_eccentricity": 0.00015525,
        "meta_inclination": 42.9992,
        "meta_ra_of_asc_node": 224.9683,
        "meta_arg_of_pericenter": 257.9927,
        "meta_mean_anomaly": 356.2748,
        "meta_ephemeris_type": 0,
        "meta_classification_type": "U",
        "meta_norad_cat_id": 66610,
        "meta_element_set_no": 999,
        "meta_rev_at_epoch": 362,
        "meta_bstar": -0.021730442,
        "meta_mean_motion_dot": -0.01989307,
        "meta_mean_motion_ddot": 0,
        "tle_line1": "1 66610U 25270Y   25341.25005787 -.01989307  00000+0 -21730-1 0  9996",
        "tle_line2": "2 66610  42.9992 224.9683 0001552 257.9927 356.2748 15.65715920  3621"
      },
      "geometry": {
        "type": "Point",
        "coordinates": [
          55.946512219256704,
          -13.656775970712848
        ]
      }
    },
    {
      "type": "Feature",
      "properties": {
        "norad_id": 66611,
        "name": "STARLINK-35583",
        "group": "last-30-days",
        "lat": -14.912131848466403,
        "lon": 57.4333079302321,
        "alt_km": 380.56078838048234,
        "timestamp": "2025-12-07T22:37:41.857988+00:00",
        "meta_object_name": "STARLINK-35583",
        "meta_object_id": "2025-270Z",
        "meta_epoch": "2025-12-07T06:00:04.999968",
        "meta_mean_motion": 15.65716958,
        "meta_eccentricity": 0.00015628,
        "meta_inclination": 42.9991,
        "meta_ra_of_asc_node": 224.9636,
        "meta_arg_of_pericenter": 259.5955,
        "meta_mean_anomaly": 356.5891,
        "meta_ephemeris_type": 0,
        "meta_classification_type": "U",
        "meta_norad_cat_id": 66611,
        "meta_element_set_no": 999,
        "meta_rev_at_epoch": 362,
        "meta_bstar": -0.021754947,
        "meta_mean_motion_dot": -0.01991361,
        "meta_mean_motion_ddot": 0,
        "tle_line1": "1 66611U 25270Z   25341.25005787 -.01991361  00000+0 -21755-1 0  9997",
        "tle_line2": "2 66611  42.9991 224.9636 0001562 259.5955 356.5891 15.65716958  3623"
      },
      "geometry": {
        "type": "Point",
        "coordinates": [
          57.4333079302321,
          -14.912131848466403
        ]
      }
    },
    {
      "type": "Feature",
      "properties": {
        "norad_id": 66612,
        "name": "STARLINK-36039",
        "group": "last-30-days",
        "lat": -16.160277760949356,
        "lon": 58.94017382177613,
        "alt_km": 380.57989807804097,
        "timestamp": "2025-12-07T22:37:41.858002+00:00",
        "meta_object_name": "STARLINK-36039",
        "meta_object_id": "2025-270AA",
        "meta_epoch": "2025-12-07T06:00:04.999968",
        "meta_mean_motion": 15.6571557,
        "meta_eccentricity": 0.0001565,
        "meta_inclination": 42.999,
        "meta_ra_of_asc_node": 224.9584,
        "meta_arg_of_pericenter": 257.7546,
        "meta_mean_anomaly": 0.347,
        "meta_ephemeris_type": 0,
        "meta_classification_type": "U",
        "meta_norad_cat_id": 66612,
        "meta_element_set_no": 999,
        "meta_rev_at_epoch": 351,
        "meta_bstar": -0.021726973,
        "meta_mean_motion_dot": -0.01989013,
        "meta_mean_motion_ddot": 0,
        "tle_line1": "1 66612U 25270AA  25341.25005787 -.01989013  00000+0 -21727-1 0  9998",
        "tle_line2": "2 66612  42.9990 224.9584 0001565 257.7546   0.3470 15.65715570  3518"
      },
      "geometry": {
        "type": "Point",
        "coordinates": [
          58.94017382177613,
          -16.160277760949356
        ]
      }
    },
    {
      "type": "Feature",
      "properties": {
        "norad_id": 66613,
        "name": "STARLINK-36037",
        "group": "last-30-days",
        "lat": -17.39657539509942,
        "lon": 60.46530632712914,
        "alt_km": 380.68277892797323,
        "timestamp": "2025-12-07T22:37:41.858013+00:00",
        "meta_object_name": "STARLINK-36037",
        "meta_object_id": "2025-270AB",
        "meta_epoch": "2025-12-07T06:00:04.999968",
        "meta_mean_motion": 15.65715444,
        "meta_eccentricity": 0.00015746,
        "meta_inclination": 42.999,
        "meta_ra_of_asc_node": 224.9537,
        "meta_arg_of_pericenter": 259.0196,
        "meta_mean_anomaly": 0.9989,
        "meta_ephemeris_type": 0,
        "meta_classification_type": "U",
        "meta_norad_cat_id": 66613,
        "meta_element_set_no": 999,
        "meta_rev_at_epoch": 351,
        "meta_bstar": -0.021719919,
        "meta_mean_motion_dot": -0.01988444,
        "meta_mean_motion_ddot": 0,
        "tle_line1": "1 66613U 25270AB  25341.25005787 -.01988444  00000+0 -21720-1 0  9999",
        "tle_line2": "2 66613  42.9990 224.9537 0001574 259.0196   0.9989 15.65715444  3514"
      },
      "geometry": {
        "type": "Point",
        "coordinates": [
          60.46530632712914,
          -17.39657539509942
        ]
      }
    }
  ]
}